{
  "type": "FeatureCollection",
  "features": [
    {
      "type": "Feature",
      "properties": {
        "norad_id": 42989,
        "name": "SKYSAT-C9",
        "group": "resource",
        "lat": 51.5310449801078,
        "lon": -46.30363807973966,
        "alt_km": 449.3404591381086,
        "timestamp": "2025-12-19T22:41:52.036686+00:00",
        "meta_object_name": "SKYSAT-C9",
        "meta_object_id": "2017-068C",
        "meta_epoch": "2025-12-18T22:41:41.803008",
        "meta_mean_motion": 15.36203039,
        "meta_eccentricity": 0.0010548,
        "meta_inclination": 97.4193,
        "meta_ra_of_asc_node": 123.2487,
        "meta_arg_of_pericenter": 67.9248,
        "meta_mean_anomaly": 292.3115,
        "meta_ephemeris_type": 0,
        "meta_classification_type": "U",
        "meta_norad_cat_id": 42989,
        "meta_element_set_no": 999,
        "meta_rev_at_epoch": 45503,
        "meta_bstar": 0.00029759929,
        "meta_mean_motion_dot": 0.00010438,
        "meta_mean_motion_ddot": 0,
        "tle_line1": "1 42989U 17068C   25352.94562272  .00010438  00000+0  29760-3 0  9990",
        "tle_line2": "2 42989  97.4193 123.2487 0010548  67.9248 292.3115 15.36203039455030"
      },
      "geometry": {
        "type": "Point",
        "coordinates": [
          -46.30363807973966,
          51.5310449801078
        ]
      }
    },
    {
      "type": "Feature",
      "properties": {
        "norad_id": 42990,
        "name": "SKYSAT-C8",
        "group": "resource",
        "lat": 16.871196967117164,
        "lon": 121.70977782027897,
        "alt_km": 466.9760900468309,
        "timestamp": "2025-12-19T22:41:52.036699+00:00",
        "meta_object_name": "SKYSAT-C8",
        "meta_object_id": "2017-068D",
        "meta_epoch": "2025-12-18T19:59:35.453472",
        "meta_mean_motion": 15.33051371,
        "meta_eccentricity": 0.00011703,
        "meta_inclination": 97.4282,
        "meta_ra_of_asc_node": 122.8599,
        "meta_arg_of_pericenter": 316.3061,
        "meta_mean_anomaly": 43.8088,
        "meta_ephemeris_type": 0,
        "meta_classification_type": "U",
        "meta_norad_cat_id": 42990,
        "meta_element_set_no": 999,
        "meta_rev_at_epoch": 45464,
        "meta_bstar": 0.00030081895,
        "meta_mean_motion_dot": 9.527e-05,
        "meta_mean_motion_ddot": 0,
        "tle_line1": "1 42990U 17068D   25352.83304923  .00009527  00000+0  30082-3 0  9993",
        "tle_line2": "2 42990  97.4282 122.8599 0001170 316.3061  43.8088 15.33051371454646"
      },
      "geometry": {
        "type": "Point",
        "coordinates": [
          121.70977782027897,
          16.871196967117164
        ]
      }
    },
    {
      "type": "Feature",
      "properties": {
        "norad_id": 42991,
        "name": "SKYSAT-C7",
        "group": "resource",
        "lat": -36.80668757045331,
        "lon": -60.59046504115763,
        "alt_km": 479.8306659228465,
        "timestamp": "2025-12-19T22:41:52.036710+00:00",
        "meta_object_name": "SKYSAT-C7",
        "meta_object_id": "2017-068E",
        "meta_epoch": "2025-12-18T22:14:48.659712",
        "meta_mean_motion": 15.32453251,
        "meta_eccentricity": 0.00072381,
        "meta_inclination": 97.429,
        "meta_ra_of_asc_node": 123.9903,
        "meta_arg_of_pericenter": 38.2093,
        "meta_mean_anomaly": 321.9661,
        "meta_ephemeris_type": 0,
        "meta_classification_type": "U",
        "meta_norad_cat_id": 42991,
        "meta_element_set_no": 999,
        "meta_rev_at_epoch": 45472,
        "meta_bstar": 0.00029204968,
        "meta_mean_motion_dot": 9.081e-05,
        "meta_mean_motion_ddot": 0,
        "tle_line1": "1 42991U 17068E   25352.92695208  .00009081  00000+0  29205-3 0  9993",
        "tle_line2": "2 42991  97.4290 123.9903 0007238  38.2093 321.9661 15.32453251454721"
      },
      "geometry": {
        "type": "Point",
        "coordinates": [
          -60.59046504115763,
          -36.80668757045331
        ]
      }
    },
    {
      "type": "Feature",
      "properties": {
        "norad_id": 42992,
        "name": "SKYSAT-C6",
        "group": "resource",
        "lat": -47.36612146704172,
        "lon": 133.59755405456903,
        "alt_km": 479.02011755615695,
        "timestamp": "2025-12-19T22:41:52.036721+00:00",
        "meta_object_name": "SKYSAT-C6",
        "meta_object_id": "2017-068F",
        "meta_epoch": "2025-12-19T08:47:41.145216",
        "meta_mean_motion": 15.31619298,
        "meta_eccentricity": 0.000501,
        "meta_inclination": 97.4324,
        "meta_ra_of_asc_node": 124.8648,
        "meta_arg_of_pericenter": 64.6315,
        "meta_mean_anomaly": 295.5445,
        "meta_ephemeris_type": 0,
        "meta_classification_type": "U",
        "meta_norad_cat_id": 42992,
        "meta_element_set_no": 999,
        "meta_rev_at_epoch": 45477,
        "meta_bstar": 0.00026559,
        "meta_mean_motion_dot": 8.034e-05,
        "meta_mean_motion_ddot": 0,
        "tle_line1": "1 42992U 17068F   25353.36644844  .00008034  00000+0  26559-3 0  9999",
        "tle_line2": "2 42992  97.4324 124.8648 0005010  64.6315 295.5445 15.31619298454777"
      },
      "geometry": {
        "type": "Point",
        "coordinates": [
          133.59755405456903,
          -47.36612146704172
        ]
      }
    },
    {
      "type": "Feature",
      "properties": {
        "norad_id": 43111,
        "name": "CARTOSAT-2F",
        "group": "resource",
        "lat": 77.15684624746429,
        "lon": -93.60816080346025,
        "alt_km": 500.1234085586575,
        "timestamp": "2025-12-19T22:41:52.036732+00:00",
        "meta_object_name": "CARTOSAT-2F",
        "meta_object_id": "2018-004A",
        "meta_epoch": "2025-12-19T17:30:53.161344",
        "meta_mean_motion": 15.19187679,
        "meta_eccentricity": 0.000135,
        "meta_inclination": 97.4311,
        "meta_ra_of_asc_node": 51.2553,
        "meta_arg_of_pericenter": 107.5631,
        "meta_mean_anomaly": 252.5751,
        "meta_ephemeris_type": 0,
        "meta_classification_type": "U",
        "meta_norad_cat_id": 43111,
        "meta_element_set_no": 999,
        "meta_rev_at_epoch": 44008,
        "meta_bstar": 0.00020449,
        "meta_mean_motion_dot": 4.234e-05,
        "meta_mean_motion_ddot": 0,
        "tle_line1": "1 43111U 18004A   25353.72978196  .00004234  00000+0  20449-3 0  9994",
        "tle_line2": "2 43111  97.4311  51.2553 0001350 107.5631 252.5751 15.19187679440087"
      },
      "geometry": {
        "type": "Point",
        "coordinates": [
          -93.60816080346025,
          77.15684624746429
        ]
      }
    },
    {
      "type": "Feature",
      "properties": {
        "norad_id": 43259,
        "name": "GAOFEN-1 02",
        "group": "resource",
        "lat": -17.07043821676338,
        "lon": -130.76230630572593,
        "alt_km": 644.0424893784084,
        "timestamp": "2025-12-19T22:41:52.036743+00:00",
        "meta_object_name": "GAOFEN-1 02",
        "meta_object_id": "2018-031A",
        "meta_epoch": "2025-12-19T18:33:16.646112",
        "meta_mean_motion": 14.76427979,
        "meta_eccentricity": 0.0002179,
        "meta_inclination": 98.0802,
        "meta_ra_of_asc_node": 51.5653,
        "meta_arg_of_pericenter": 190.2213,
        "meta_mean_anomaly": 169.8953,
        "meta_ephemeris_type": 0,
        "meta_classification_type": "U",
        "meta_norad_cat_id": 43259,
        "meta_element_set_no": 999,
        "meta_rev_at_epoch": 41622,
        "meta_bstar": 6.5699e-05,
        "meta_mean_motion_dot": 4.05e-06,
        "meta_mean_motion_ddot": 0,
        "tle_line1": "1 43259U 18031A   25353.77310933  .00000405  00000+0  65699-4 0  9994",
        "tle_line2": "2 43259  98.0802  51.5653 0002179 190.2213 169.8953 14.76427979416226"
      },
      "geometry": {
        "type": "Point",
        "coordinates": [
          -130.76230630572593,
          -17.07043821676338
        ]
      }
    },
    {
      "type": "Feature",
      "properties": {
        "norad_id": 43260,
        "name": "GAOFEN-1 03",
        "group": "resource",
        "lat": -46.60442644277299,
        "lon": 60.253836863255536,
        "alt_km": 646.2853890200558,
        "timestamp": "2025-12-19T22:41:52.036753+00:00",
        "meta_object_name": "GAOFEN-1 03",
        "meta_object_id": "2018-031B",
        "meta_epoch": "2025-12-19T18:01:54.148224",
        "meta_mean_motion": 14.76450266,
        "meta_eccentricity": 0.0001709,
        "meta_inclination": 98.079,
        "meta_ra_of_asc_node": 51.4192,
        "meta_arg_of_pericenter": 285.631,
        "meta_mean_anomaly": 74.4711,
        "meta_ephemeris_type": 0,
        "meta_classification_type": "U",
        "meta_norad_cat_id": 43260,
        "meta_element_set_no": 999,
        "meta_rev_at_epoch": 41621,
        "meta_bstar": 9.8836e-05,
        "meta_mean_motion_dot": 6.36e-06,
        "meta_mean_motion_ddot": 0,
        "tle_line1": "1 43260U 18031B   25353.75132116  .00000636  00000+0  98836-4 0  9994",
        "tle_line2": "2 43260  98.0790  51.4192 0001709 285.6310  74.4711 14.76450266416213"
      },
      "geometry": {
        "type": "Point",
        "coordinates": [
          60.253836863255536,
          -46.60442644277299
        ]
      }
    }
  ]
}